CTC1_L_00445016-03
1 10062U 26026YO  26075.70034722  .00000000  00000+0  00000-0 0  9999
2 10062  65.0000 180.0000 0000000   0.0000   0.0000 12.41559304    16
CTC1_L_00445016-04
1 10063U 23156WO  26075.70034722  .00000000  00000+0  00000-0 0  9991
2 10063  65.0000 180.0000 0000000   0.0000  90.0000 12.41559304    16
CTC1_L_00445017-01
1 10064U 24144IP  26075.70034722  .00000000  00000+0  00000-0 0  9990
2 10064  65.0000 192.0000 0000000   0.0000 192.0000 12.41559304    13
CTC1_L_00445017-02
1 10065U 22158FA  26075.70034722  .00000000  00000+0  00000-0 0  9994
2 10065  65.0000 192.0000 0000000   0.0000 282.0000 12.41559304    14
CTC1_L_00445017-03
1 10066U 24576FH  26075.70034722  .00000000  00000+0  00000-0 0  9991
2 10066  65.0000 192.0000 0000000   0.0000  12.0000 12.41559304    16
CTC1_L_00445017-04
1 10067U 25429DJ  26075.70034722  .00000000  00000+0  00000-0 0  9990
2 10067  65.0000 192.0000 0000000   0.0000 102.0000 12.41559304    17
CTC1_L_00445018-01
1 10068U 25701CL  26075.70034722  .00000000  00000+0  00000-0 0  9994
2 10068  65.0000 204.0000 0000000   0.0000 204.0000 12.41559304    15
CTC1_L_00445018-02
1 10069U 23053GQ  26075.70034722  .00000000  00000+0  00000-0 0  9993
2 10069  65.0000 204.0000 0000000   0.0000 294.0000 12.41559304    15
CTC1_L_00445018-03
1 10070U 25047GA  26075.70034722  .00000000  00000+0  00000-0 0  9990
2 10070  65.0000 204.0000 0000000   0.0000  24.0000 12.41559304    18
CTC1_L_00445018-04
1 10071U 25785XP  26075.70034722  .00000000  00000+0  00000-0 0  9990
2 10071  65.0000 204.0000 0000000   0.0000 114.0000 12.41559304    19
CTC1_L_00445019-01
1 10072U 23176MB  26075.70034722  .00000000  00000+0  00000-0 0  9993
2 10072  65.0000 216.0000 0000000   0.0000 216.0000 12.41559304    16
CTC1_L_00445019-02
1 10073U 24784SH  26075.70034722  .00000000  00000+0  00000-0 0  9990
2 10073  65.0000 216.0000 0000000   0.0000 306.0000 12.41559304    17
CTC1_L_00445019-03
1 10074U 25061MC  26075.70034722  .00000000  00000+0  00000-0 0  9990
2 10074  65.0000 216.0000 0000000   0.0000  36.0000 12.41559304    18
CTC1_L_00445019-04
1 10075U 22909PB  26075.70034722  .00000000  00000+0  00000-0 0  9999
2 10075  65.0000 216.0000 0000000   0.0000 126.0000 12.41559304    19
CTC1_L_00445020-01
1 10076U 25115UC  26075.70034722  .00000000  00000+0  00000-0 0  9992
2 10076  65.0000 228.0000 0000000   0.0000 228.0000 12.41559304    16
CTC1_L_00445020-02
1 10077U 24687HJ  26075.70034722  .00000000  00000+0  00000-0 0  9996
2 10077  65.0000 228.0000 0000000   0.0000 318.0000 12.41559304    17
CTC1_L_00445020-03
1 10078U 26126IM  26075.70034722  .00000000  00000+0  00000-0 0  9997
2 10078  65.0000 228.0000 0000000   0.0000  48.0000 12.41559304    18
CTC1_L_00445020-04
1 10079U 22628OW  26075.70034722  .00000000  00000+0  00000-0 0  9991
2 10079  65.0000 228.0000 0000000   0.0000 138.0000 12.41559304    19
CTC1_L_00445021-01
1 10080U 22212UK  26075.70034722  .00000000  00000+0  00000-0 0  9992
2 10080  65.0000 240.0000 0000000   0.0000 240.0000 12.41559304    19
CTC1_L_00445021-02
1 10081U 25770VM  26075.70034722  .00000000  00000+0  00000-0 0  9995
2 10081  65.0000 240.0000 0000000   0.0000 330.0000 12.41559304    10
CTC1_L_00445021-03
1 10082U 22795O   26075.70034722  .00000000  00000+0  00000-0 0  9990
2 10082  65.0000 240.0000 0000000   0.0000  60.0000 12.41559304    11
CTC1_L_00445021-04
1 10083U 24554ID  26075.70034722  .00000000  00000+0  00000-0 0  9996
2 10083  65.0000 240.0000 0000000   0.0000 150.0000 12.41559304    12
CTC1_L_00445022-01
1 10084U 23502CA  26075.70034722  .00000000  00000+0  00000-0 0  9999
2 10084  65.0000 252.0000 0000000   0.0000 252.0000 12.41559304    19
CTC1_L_00445022-02
1 10085U 22245DA  26075.70034722  .00000000  00000+0  00000-0 0  9993
2 10085  65.0000 252.0000 0000000   0.0000 342.0000 12.41559304    10
CTC1_L_00445022-03
1 10086U 23785WY  26075.70034722  .00000000  00000+0  00000-0 0  9994
2 10086  65.0000 252.0000 0000000   0.0000  72.0000 12.41559304    11
CTC1_L_00445022-04
1 10087U 26153BB  26075.70034722  .00000000  00000+0  00000-0 0  9997
2 10087  65.0000 252.0000 0000000   0.0000 162.0000 12.41559304    12
CTC1_L_00445023-01
1 10088U 25104LA  26075.70034722  .00000000  00000+0  00000-0 0  9993
2 10088  65.0000 264.0000 0000000   0.0000 264.0000 12.41559304    19
CTC1_L_00445023-02
1 10089U 26311VV  26075.70034722  .00000000  00000+0  00000-0 0  9995
2 10089  65.0000 264.0000 0000000   0.0000 354.0000 12.41559304    10
CTC1_L_00445023-03
1 10090U 22404JB  26075.70034722  .00000000  00000+0  00000-0 0  9996
2 10090  65.0000 264.0000 0000000   0.0000  84.0000 12.41559304    12
CTC1_L_00445023-04
1 10091U 26270DG  26075.70034722  .00000000  00000+0  00000-0 0  9992
2 10091  65.0000 264.0000 0000000   0.0000 174.0000 12.41559304    13
CTC1_L_00445024-01
1 10092U 25950GZ  26075.70034722  .00000000  00000+0  00000-0 0  9997
2 10092  65.0000 276.0000 0000000   0.0000 276.0000 12.41559304    10
CTC1_L_00445024-02
1 10093U 22682TW  26075.70034722  .00000000  00000+0  00000-0 0  9997
2 10093  65.0000 276.0000 0000000   0.0000   6.0000 12.41559304    12
CTC1_L_00445024-03
1 10094U 23686CC  26075.70034722  .00000000  00000+0  00000-0 0  9993
2 10094  65.0000 276.0000 0000000   0.0000  96.0000 12.41559304    12
CTC1_L_00445024-04
1 10095U 22847AT  26075.70034722  .00000000  00000+0  00000-0 0  9992
2 10095  65.0000 276.0000 0000000   0.0000 186.0000 12.41559304    13
CTC1_L_00445025-01
1 10096U 22081CJ  26075.70034722  .00000000  00000+0  00000-0 0  9993
2 10096  65.0000 288.0000 0000000   0.0000 288.0000 12.41559304    10
CTC1_L_00445025-02
1 10097U 23742MB  26075.70034722  .00000000  00000+0  00000-0 0  9999
2 10097  65.0000 288.0000 0000000   0.0000  18.0000 12.41559304    12
CTC1_L_00445025-03
1 10098U 25357JH  26075.70034722  .00000000  00000+0  00000-0 0  9994
2 10098  65.0000 288.0000 0000000   0.0000 108.0000 12.41559304    13
CTC1_L_00445025-04
1 10099U 22093QX  26075.70034722  .00000000  00000+0  00000-0 0  9999
2 10099  65.0000 288.0000 0000000   0.0000 198.0000 12.41559304    13
CTC1_L_00445026-01
1 10100U 23611TQ  26075.70034722  .00000000  00000+0  00000-0 0  9999
2 10100  65.0000 300.0000 0000000   0.0000 300.0000 12.41559304    16
CTC1_L_00445026-02
1 10101U 24634RL  26075.70034722  .00000000  00000+0  00000-0 0  9996
2 10101  65.0000 300.0000 0000000   0.0000  30.0000 12.41559304    17
CTC1_L_00445026-03
1 10102U 23157MW  26075.70034722  .00000000  00000+0  00000-0 0  9996
2 10102  65.0000 300.0000 0000000   0.0000 120.0000 12.41559304    18
CTC1_L_00445026-04
1 10103U 23855ZX  26075.70034722  .00000000  00000+0  00000-0 0  9992
2 10103  65.0000 300.0000 0000000   0.0000 210.0000 12.41559304    19
CTC1_L_00445027-01
1 10104U 25447IH  26075.70034722  .00000000  00000+0  00000-0 0  9992
2 10104  65.0000 312.0000 0000000   0.0000 312.0000 12.41559304    16
CTC1_L_00445027-02
1 10105U 22058QA  26075.70034722  .00000000  00000+0  00000-0 0  9998
2 10105  65.0000 312.0000 0000000   0.0000  42.0000 12.41559304    17
CTC1_L_00445027-03
1 10106U 24614PJ  26075.70034722  .00000000  00000+0  00000-0 0  9999
2 10106  65.0000 312.0000 0000000   0.0000 132.0000 12.41559304    18
CTC1_L_00445027-04
1 10107U 25744DX  26075.70034722  .00000000  00000+0  00000-0 0  9995
2 10107  65.0000 312.0000 0000000   0.0000 222.0000 12.41559304    19
CTC1_L_00445028-01
1 10108U 24985GC  26075.70034722  .00000000  00000+0  00000-0 0  9992
2 10108  65.0000 324.0000 0000000   0.0000 324.0000 12.41559304    16
CTC1_L_00445028-02
1 10109U 24416ND  26075.70034722  .00000000  00000+0  00000-0 0  9992
2 10109  65.0000 324.0000 0000000   0.0000  54.0000 12.41559304    17
CTC1_L_00445028-03
1 10110U 24773SF  26075.70034722  .00000000  00000+0  00000-0 0  9990
2 10110  65.0000 324.0000 0000000   0.0000 144.0000 12.41559304    19
CTC1_L_00445028-04
1 10111U 22218QZ  26075.70034722  .00000000  00000+0  00000-0 0  9993
2 10111  65.0000 324.0000 0000000   0.0000 234.0000 12.41559304    10
CTC1_L_00445029-01
1 10112U 23073AL  26075.70034722  .00000000  00000+0  00000-0 0  9994
2 10112  65.0000 336.0000 0000000   0.0000 336.0000 12.41559304    17
CTC1_L_00445029-02
1 10113U 26424WT  26075.70034722  .00000000  00000+0  00000-0 0  9998
2 10113  65.0000 336.0000 0000000   0.0000  66.0000 12.41559304    18
CTC1_L_00445029-03
1 10114U 23604OY  26075.70034722  .00000000  00000+0  00000-0 0  9996
2 10114  65.0000 336.0000 0000000   0.0000 156.0000 12.41559304    19
CTC1_L_00445029-04
1 10115U 23872SI  26075.70034722  .00000000  00000+0  00000-0 0  9994
2 10115  65.0000 336.0000 0000000   0.0000 246.0000 12.41559304    10
CTC1_L_00445030-01
1 10116U 22704WZ  26075.70034722  .00000000  00000+0  00000-0 0  9998
2 10116  65.0000 348.0000 0000000   0.0000 348.0000 12.41559304    17
CTC1_L_00445030-02
1 10117U 24787NA  26075.70034722  .00000000  00000+0  00000-0 0  9992
2 10117  65.0000 348.0000 0000000   0.0000  78.0000 12.41559304    18
CTC1_L_00445030-03
1 10118U 23718RG  26075.70034722  .00000000  00000+0  00000-0 0  9996
2 10118  65.0000 348.0000 0000000   0.0000 168.0000 12.41559304    19
CTC1_L_00445030-04
1 10119U 23698FW  26075.70034722  .00000000  00000+0  00000-0 0  9994
2 10119  65.0000 348.0000 0000000   0.0000 258.0000 12.41559304    10
